NORAD_CAT_ID,OBJECT_NAME,OBJECT_TYPE,EPOCH,MEAN_MOTION,ECCENTRICITY,INCLINATION,RA_OF_ASC_NODE,ARG_OF_PERICENTER,MEAN_ANOMALY,BSTAR,MEAN_MOTION_DOT,MEAN_MOTION_DDOT,TLE_LINE0,TLE_LINE1,TLE_LINE2,SEMIMAJOR_AXIS,PERIOD,APOGEE,PERIGEE,DECAYED
53979.0,STARLINK-5123,PAYLOAD,2024-02-25 10:02:19,15.08847548,0.0001246,53.2162,315.7899,72.923,287.1898,6.2954e-05,7.14e-06,0.0,0 STARLINK-5123,1 53979U 22125R   24056.41827893  .00000714  00000-0  62954-4 0  9996,2 53979  53.2162 315.7899 0001246  72.9230 287.1898 15.08847548 77188,6917.857,95.437,540.584,538.86,0.0
53979.0,STARLINK-5123,PAYLOAD,2024-02-25 22:45:25,15.08835731,0.000136,53.2165,313.4114,76.1661,283.9483,0.00019363,2.795e-05,0.0,0 STARLINK-5123,1 53979U 22125R   24056.94820607  .00002795  00000-0  19363-3 0  9996,2 53979  53.2165 313.4114 0001360  76.1661 283.9483 15.08835731 77261,6917.893,95.438,540.699,538.818,0.0
53979.0,STARLINK-5123,PAYLOAD,2024-02-26 01:56:10,15.0884775,0.000146,53.2177,312.8196,90.3307,269.7853,0.00018989,2.736e-05,0.0,0 STARLINK-5123,1 53979U 22125R   24057.08067942  .00002736  00000-0  18989-3 0  9995,2 53979  53.2177 312.8196 0001460  90.3307 269.7853 15.08847750 77282,6917.857,95.437,540.732,538.712,0.0
53979.0,STARLINK-5123,PAYLOAD,2024-02-26 16:14:40,15.08826196,0.0001031,53.2177,310.1397,78.4595,281.6513,-0.00012508,-2.277e-05,0.0,0 STARLINK-5123,1 53979U 22125R   24057.67685237 -.00002277  00000-0 -12508-3 0  9996,2 53979  53.2177 310.1397 0001031  78.4595 281.6513 15.08826196 77441,6917.923,95.438,540.501,539.074,0.0
53979.0,STARLINK-5123,PAYLOAD,2024-02-26 22:36:12,15.08831624,0.0001447,53.2175,308.9545,87.5502,272.5656,2.201e-05,6.2e-07,0.0,0 STARLINK-5123,1 53979U 22125R   24057.94181008  .00000062  00000-0  22010-4 0  9991,2 53979  53.2175 308.9545 0001447  87.5502 272.5656 15.08831624 77415,6917.906,95.438,540.772,538.77,0.0
53979.0,STARLINK-5123,PAYLOAD,2024-02-27 00:11:35,15.08832344,0.0001414,53.217,308.6575,83.3626,276.7527,4.4732e-05,4.24e-06,0.0,0 STARLINK-5123,1 53979U 22125R   24058.00805036  .00000424  00000-0  44732-4 0  9990,2 53979  53.2170 308.6575 0001414  83.3626 276.7527 15.08832344 77496,6917.904,95.438,540.747,538.791,0.0
53979.0,STARLINK-5123,PAYLOAD,2024-02-27 09:43:54,15.08834833,0.0001395,53.2171,306.8731,89.3502,270.765,7.5746e-05,9.18e-06,0.0,0 STARLINK-5123,1 53979U 22125R   24058.40549096  .00000918  00000-0  75746-4 0  9992,2 53979  53.2171 306.8731 0001395  89.3502 270.7650 15.08834833 77483,6917.896,95.438,540.726,538.796,0.0
53979.0,STARLINK-5123,PAYLOAD,2024-02-27 22:26:59,15.08834683,0.0001291,53.2162,304.4939,90.2547,269.8593,7.5896e-05,9.2e-06,0.0,0 STARLINK-5123,1 53979U 22125R   24058.93541354  .00000920  00000-0  75896-4 0  9998,2 53979  53.2162 304.4939 0001291  90.2547 269.8593 15.08834683 77569,6917.897,95.438,540.655,538.869,0.0
53979.0,STARLINK-5123,PAYLOAD,2024-02-28 01:37:45,15.08842569,0.0001351,53.2166,303.897,92.2777,267.837,0.00010516,1.386e-05,0.0,0 STARLINK-5123,1 53979U 22125R   24059.06788998  .00001386  00000-0  10516-3 0  9994,2 53979  53.2166 303.8970 0001351  92.2777 267.8370 15.08842569 77658,6917.873,95.437,540.672,538.803,0.0
53979.0,STARLINK-5123,PAYLOAD,2024-02-28 09:34:41,15.08839184,0.0001315,53.216,302.4098,90.5863,269.528,7.1745e-05,8.54e-06,0.0,0 STARLINK-5123,1 53979U 22125R   24059.39909273  .00000854  00000-0  71745-4 0  9992,2 53979  53.2160 302.4098 0001315  90.5863 269.5280 15.08839184 77631,6917.883,95.438,540.658,538.838,0.0
53979.0,STARLINK-5123,PAYLOAD,2024-02-28 22:17:46,15.08841253,0.0001319,53.2159,300.03,93.4561,266.6582,0.00019234,2.775e-05,0.0,0 STARLINK-5123,1 53979U 22125R   24059.92901352  .00002775  00000-0  19234-3 0  9999,2 53979  53.2159 300.0300 0001319  93.4561 266.6582 15.08841253 77712,6917.877,95.437,540.654,538.829,0.0
53979.0,STARLINK-5123,PAYLOAD,2024-02-29 22:08:33,15.08848061,0.0001285,53.2155,295.5683,96.5005,263.6134,0.00023686,3.485e-05,0.0,0 STARLINK-5123,1 53979U 22125R   24060.92260925  .00003485  00000-0  23686-3 0  9990,2 53979  53.2155 295.5683 0001285  96.5005 263.6134 15.08848061 77869,6917.856,95.437,540.61,538.832,0.0
53979.0,STARLINK-5123,PAYLOAD,2024-03-01 01:19:19,15.08851466,0.0001294,53.2158,294.9734,96.9949,263.119,0.00022004,3.217e-05,0.0,0 STARLINK-5123,1 53979U 22125R   24061.05508685  .00003217  00000-0  22004-3 0  9999,2 53979  53.2158 294.9734 0001294  96.9949 263.1190 15.08851466 77953,6917.845,95.437,540.606,538.815,0.0
53979.0,STARLINK-5123,PAYLOAD,2024-03-01 20:23:57,15.08847303,0.0001514,53.2167,291.4031,103.7972,256.3188,0.00010375,1.364e-05,0.0,0 STARLINK-5123,1 53979U 22125R   24061.84996684  .00001364  00000-0  10375-3 0  9995,2 53979  53.2167 291.4031 0001514 103.7972 256.3188 15.08847303 78073,6917.858,95.437,540.77,538.676,0.0
53979.0,STARLINK-5123,PAYLOAD,2024-03-01 21:59:20,15.08846673,0.0001501,53.2169,291.1049,103.0226,257.0934,0.00011022,1.467e-05,0.0,0 STARLINK-5123,1 53979U 22125R   24061.91620675  .00001467  00000-0  11022-3 0  9991,2 53979  53.2169 291.1049 0001501 103.0226 257.0934 15.08846673 78012,6917.86,95.437,540.763,538.687,0.0
53979.0,STARLINK-5123,PAYLOAD,2024-03-02 18:39:21,15.08834098,0.0001506,53.2166,287.2395,104.111,256.005,0.00025052,3.701e-05,0.0,0 STARLINK-5123,1 53979U 22125R   24062.77733091  .00003701  00000-0  25052-3 0  9994,2 53979  53.2166 287.2395 0001506 104.1110 256.0050 15.08834098 78216,6917.898,95.438,540.805,538.722,0.0
53979.0,STARLINK-5123,PAYLOAD,2024-03-02 21:50:07,15.0884453,0.0001583,53.2169,286.6466,104.0723,256.0445,4.5288e-06,-2.16e-06,0.0,0 STARLINK-5123,1 53979U 22125R   24062.90980584 -.00000216  00000-0  45288-5 0  9994,2 53979  53.2169 286.6466 0001583 104.0723 256.0445 15.08844530 78169,6917.867,95.437,540.827,538.636,0.0
53979.0,STARLINK-5123,PAYLOAD,2024-03-03 15:19:22,15.08837773,0.0001654,53.2185,283.3807,100.2623,259.8556,2.3043e-05,7.9e-07,0.0,0 STARLINK-5123,1 53979U 22125R   24063.63845382  .00000079  00000-0  23043-4 0  9991,2 53979  53.2185 283.3807 0001654 100.2623 259.8556 15.08837773 78273,6917.887,95.438,540.896,538.608,0.0
53979.0,STARLINK-5123,PAYLOAD,2024-03-03 20:05:31,15.08841641,0.0002312,53.2191,282.4889,136.3787,223.7388,-5.3541e-06,-3.74e-06,0.0,0 STARLINK-5123,1 53979U 22125R   24063.83717066 -.00000374  00000-0 -53541-5 0  9997,2 53979  53.2191 282.4889 0002312 136.3787 223.7388 15.08841641 78376,6917.875,95.437,541.34,538.141,0.0
53979.0,STARLINK-5123,PAYLOAD,2024-03-03 21:40:54,15.08843732,0.0001598,53.2184,282.1911,96.9947,263.1227,0.00010427,1.372e-05,0.0,0 STARLINK-5123,1 53979U 22125R   24063.90341036  .00001372  00000-0  10427-3 0  9996,2 53979  53.2184 282.1911 0001598  96.9947 263.1227 15.08843732 78312,6917.869,95.437,540.839,538.629,0.0
53979.0,STARLINK-5123,PAYLOAD,2024-03-04 07:13:13,15.0884182,0.0001581,53.2176,280.4071,103.948,256.1688,0.00012328,1.675e-05,0.0,0 STARLINK-5123,1 53979U 22125R   24064.30084913  .00001675  00000-0  12328-3 0  9997,2 53979  53.2176 280.4071 0001581 103.9480 256.1688 15.08841820 78379,6917.875,95.437,540.834,538.646,0.0
53979.0,STARLINK-5123,PAYLOAD,2024-03-04 19:56:17,15.088523,0.000145,53.2167,278.0276,100.9714,259.1441,0.00019447,2.809e-05,0.0,0 STARLINK-5123,1 53979U 22125R   24064.83076253  .00002809  00000-0  19447-3 0  9992,2 53979  53.2167 278.0276 0001450 100.9714 259.1441 15.08852300 78523,6917.843,95.437,540.711,538.705,0.0
53979.0,STARLINK-5123,PAYLOAD,2024-03-04 21:31:41,15.08853496,0.0001438,53.2167,277.7302,99.22,260.8954,0.00027758,4.134e-05,0.0,0 STARLINK-5123,1 53979U 22125R   24064.89700253  .00004134  00000-0  27758-3 0  9999,2 53979  53.2167 277.7302 0001438  99.2200 260.8954 15.08853496 78463,6917.839,95.437,540.699,538.709,0.0
53979.0,STARLINK-5123,PAYLOAD,2024-03-05 00:42:27,15.08858005,0.00015,53.2164,277.1352,104.4837,255.6322,0.00046301,7.092e-05,0.0,0 STARLINK-5123,1 53979U 22125R   24065.02948099  .00007092  00000-0  46301-3 0  9998,2 53979  53.2164 277.1352 0001500 104.4837 255.6322 15.08858005 78488,6917.825,95.436,540.728,538.653,0.0
53979.0,STARLINK-5123,PAYLOAD,2024-03-05 19:47:05,15.08836075,0.0001857,53.215,273.5595,132.0421,228.0729,2.5094e-05,1.11e-06,0.0,0 STARLINK-5123,1 53979U 22125R   24065.82436641  .00000111  00000-0  25094-4 0  9993,2 53979  53.2150 273.5595 0001857 132.0421 228.0729 15.08836075 78672,6917.892,95.438,541.042,538.473,0.0
53979.0,STARLINK-5123,PAYLOAD,2024-03-05 21:22:28,15.08828924,0.0001479,53.2168,273.2702,82.7271,277.3889,-0.00021095,-3.643e-05,0.0,0 STARLINK-5123,1 53979U 22125R   24065.89061226 -.00003643  00000-0 -21095-3 0  9994,2 53979  53.2168 273.2702 0001479  82.7271 277.3889 15.08828924 78681,6917.914,95.438,540.802,538.756,0.0
53979.0,STARLINK-5123,PAYLOAD,2024-03-06 13:16:20,15.0883629,0.000144,53.2163,270.2917,79.2461,280.8693,5.9063e-05,6.52e-06,0.0,0 STARLINK-5123,1 53979U 22125R   24066.55301438  .00000652  00000-0  59063-4 0  9992,2 53979  53.2163 270.2917 0001440  79.2461 280.8693 15.08836290 78712,6917.892,95.438,540.753,538.761,0.0
53979.0,STARLINK-5123,PAYLOAD,2024-03-06 19:37:52,15.08844661,0.0001358,53.2163,269.1057,81.7452,278.3694,0.00037732,5.723e-05,0.0,0 STARLINK-5123,1 53979U 22125R   24066.81797250  .00005723  00000-0  37732-3 0  9994,2 53979  53.2163 269.1057 0001358  81.7452 278.3694 15.08844661 78826,6917.866,95.437,540.671,538.792,0.0
53979.0,STARLINK-5123,PAYLOAD,2024-03-07 13:07:07,15.08841894,0.0001506,53.2151,265.8312,92.4426,267.6738,0.00028624,4.271e-05,0.0,0 STARLINK-5123,1 53979U 22125R   24067.54661472  .00004271  00000-0  28624-3 0  9998,2 53979  53.2151 265.8312 0001506  92.4426 267.6738 15.08841894 78864,6917.875,95.437,540.781,538.698,0.0
53979.0,STARLINK-5123,PAYLOAD,2024-03-08 06:36:22,15.08846731,0.0001406,53.2148,262.5623,79.9532,280.1619,0.00029698,4.443e-05,0.0,0 STARLINK-5123,1 53979U 22125R   24068.27525476  .00004443  00000-0  29698-3 0  9995,2 53979  53.2148 262.5623 0001406  79.9532 280.1619 15.08846731 78971,6917.86,95.437,540.697,538.752,0.0
